{
  "type": "FeatureCollection",
  "features": [
    {
      "type": "Feature",
      "properties": {
        "norad_id": 54741,
        "name": "GALAXY 35 (G-35)",
        "group": "intelsat",
        "lat": -0.024161766415821094,
        "lon": -55.07821138942584,
        "alt_km": 35777.864861252456,
        "timestamp": "2025-12-04T21:36:15.542553+00:00",
        "meta_object_name": "GALAXY 35 (G-35)",
        "meta_object_id": "2022-170A",
        "meta_epoch": "2025-12-04T13:16:59.657664",
        "meta_mean_motion": 1.00270528,
        "meta_eccentricity": 0.00027694,
        "meta_inclination": 0.0151,
        "meta_ra_of_asc_node": 0.0134,
        "meta_arg_of_pericenter": 262.0557,
        "meta_mean_anomaly": 277.6941,
        "meta_ephemeris_type": 0,
        "meta_classification_type": "U",
        "meta_norad_cat_id": 54741,
        "meta_element_set_no": 999,
        "meta_rev_at_epoch": 1094,
        "meta_bstar": 0,
        "meta_mean_motion_dot": 0,
        "meta_mean_motion_ddot": 0,
        "tle_line1": "1 54741U 22170A   25338.55346826  .00000000  00000+0  00000+0 0  9991",
        "tle_line2": "2 54741   0.0151   0.0134 0002769 262.0557 277.6941  1.00270528 10944"
      },
      "geometry": {
        "type": "Point",
        "coordinates": [
          -55.07821138942584,
          -0.024161766415821094
        ]
      }
    },
    {
      "type": "Feature",
      "properties": {
        "norad_id": 54742,
        "name": "GALAXY 36 (G-36)",
        "group": "intelsat",
        "lat": 0.005685118014066772,
        "lon": -50.981008460840535,
        "alt_km": 35784.91003424901,
        "timestamp": "2025-12-04T21:36:15.542564+00:00",
        "meta_object_name": "GALAXY 36 (G-36)",
        "meta_object_id": "2022-170B",
        "meta_epoch": "2025-12-04T13:18:14.538816",
        "meta_mean_motion": 1.00271016,
        "meta_eccentricity": 6.019e-05,
        "meta_inclination": 0.0144,
        "meta_ra_of_asc_node": 275.7548,
        "meta_arg_of_pericenter": 336.826,
        "meta_mean_anomaly": 291.6079,
        "meta_ephemeris_type": 0,
        "meta_classification_type": "U",
        "meta_norad_cat_id": 54742,
        "meta_element_set_no": 999,
        "meta_rev_at_epoch": 1082,
        "meta_bstar": 0,
        "meta_mean_motion_dot": -1.71e-06,
        "meta_mean_motion_ddot": 0,
        "tle_line1": "1 54742U 22170B   25338.55433494 -.00000171  00000+0  00000+0 0  9990",
        "tle_line2": "2 54742   0.0144 275.7548 0000601 336.8260 291.6079  1.00271016 10829"
      },
      "geometry": {
        "type": "Point",
        "coordinates": [
          -50.981008460840535,
          0.005685118014066772
        ]
      }
    },
    {
      "type": "Feature",
      "properties": {
        "norad_id": 57493,
        "name": "GALAXY 37 (G-37)",
        "group": "intelsat",
        "lat": -0.026026511737556376,
        "lon": -88.97298827857664,
        "alt_km": 35776.838295222246,
        "timestamp": "2025-12-04T21:36:15.542576+00:00",
        "meta_object_name": "GALAXY 37 (G-37)",
        "meta_object_id": "2023-112A",
        "meta_epoch": "2025-12-04T14:10:38.723808",
        "meta_mean_motion": 1.00269836,
        "meta_eccentricity": 0.00023849,
        "meta_inclination": 0.012,
        "meta_ra_of_asc_node": 308.4248,
        "meta_arg_of_pericenter": 307.8922,
        "meta_mean_anomaly": 263.0163,
        "meta_ephemeris_type": 0,
        "meta_classification_type": "U",
        "meta_norad_cat_id": 57493,
        "meta_element_set_no": 999,
        "meta_rev_at_epoch": 859,
        "meta_bstar": 0,
        "meta_mean_motion_dot": 6.3e-07,
        "meta_mean_motion_ddot": 0,
        "tle_line1": "1 57493U 23112A   25338.59072597  .00000063  00000+0  00000+0 0  9999",
        "tle_line2": "2 57493   0.0120 308.4248 0002384 307.8922 263.0163  1.00269836  8598"
      },
      "geometry": {
        "type": "Point",
        "coordinates": [
          -88.97298827857664,
          -0.026026511737556376
        ]
      }
    }
  ]
}